CCSDS_OMM_VERS = 2.0
CREATION_DATE  = 
ORIGINATOR     = 

OBJECT_NAME    = STARLINK-36601
OBJECT_ID      = 2026-020B
CENTER_NAME    = EARTH
REF_FRAME      = TEME
TIME_SYSTEM    = UTC
MEAN_ELEMENT_THEORY = SGP/SGP4

EPOCH          = 2026-02-10T14:00:03.000384
MEAN_MOTION    = 15.81962384
ECCENTRICITY   = .00019636
INCLINATION    = 42.9987
RA_OF_ASC_NODE = 306.9843
ARG_OF_PERICENTER = 261.7273
MEAN_ANOMALY   = 226.0645

EPHEMERIS_TYPE = 0
CLASSIFICATION_TYPE = U
NORAD_CAT_ID   = 67618
ELEMENT_SET_NO = 999
REV_AT_EPOCH   = 303
BSTAR          = .37479062E-3
MEAN_MOTION_DOT = .7891E-3
MEAN_MOTION_DDOT = 0

CCSDS_OMM_VERS = 2.0
CREATION_DATE  = 
ORIGINATOR     = 

OBJECT_NAME    = STARLINK-36119
OBJECT_ID      = 2026-020C
CENTER_NAME    = EARTH
REF_FRAME      = TEME
TIME_SYSTEM    = UTC
MEAN_ELEMENT_THEORY = SGP/SGP4

EPOCH          = 2026-02-10T14:00:03.000384
MEAN_MOTION    = 15.78070002
ECCENTRICITY   = .0001684
INCLINATION    = 42.9991
RA_OF_ASC_NODE = 306.9953
ARG_OF_PERICENTER = 269.4984
MEAN_ANOMALY   = 213.7871

EPHEMERIS_TYPE = 0
CLASSIFICATION_TYPE = U
NORAD_CAT_ID   = 67619
ELEMENT_SET_NO = 999
REV_AT_EPOCH   = 303
BSTAR          = -.12032127E-1
MEAN_MOTION_DOT = -.1849448E-1
MEAN_MOTION_DDOT = 0

CCSDS_OMM_VERS = 2.0
CREATION_DATE  = 
ORIGINATOR     = 

OBJECT_NAME    = STARLINK-36607
OBJECT_ID      = 2026-020D
CENTER_NAME    = EARTH
REF_FRAME      = TEME
TIME_SYSTEM    = UTC
MEAN_ELEMENT_THEORY = SGP/SGP4

EPOCH          = 2026-02-10T14:00:03.000384
MEAN_MOTION    = 15.81925286
ECCENTRICITY   = .00019838
INCLINATION    = 42.9986
RA_OF_ASC_NODE = 306.9583
ARG_OF_PERICENTER = 278.4897
MEAN_ANOMALY   = 219.4128

EPHEMERIS_TYPE = 0
CLASSIFICATION_TYPE = U
NORAD_CAT_ID   = 67620
ELEMENT_SET_NO = 999
REV_AT_EPOCH   = 303
BSTAR          = .62778373E-3
MEAN_MOTION_DOT = .133143E-2
MEAN_MOTION_DDOT = 0

CCSDS_OMM_VERS = 2.0
CREATION_DATE  = 
ORIGINATOR     = 

OBJECT_NAME    = STARLINK-36615
OBJECT_ID      = 2026-020E
CENTER_NAME    = EARTH
REF_FRAME      = TEME
TIME_SYSTEM    = UTC
MEAN_ELEMENT_THEORY = SGP/SGP4

EPOCH          = 2026-02-10T14:00:03.000384
MEAN_MOTION    = 15.81934828
ECCENTRICITY   = .00019482
INCLINATION    = 42.9990
RA_OF_ASC_NODE = 306.9683
ARG_OF_PERICENTER = 268.4094
MEAN_ANOMALY   = 225.7725

EPHEMERIS_TYPE = 0
CLASSIFICATION_TYPE = U
NORAD_CAT_ID   = 67621
ELEMENT_SET_NO = 999
REV_AT_EPOCH   = 303
BSTAR          = .52875399E-3
MEAN_MOTION_DOT = .111828E-2
MEAN_MOTION_DDOT = 0

CCSDS_OMM_VERS = 2.0
CREATION_DATE  = 
ORIGINATOR     = 

OBJECT_NAME    = STARLINK-36614
OBJECT_ID      = 2026-020F
CENTER_NAME    = EARTH
REF_FRAME      = TEME
TIME_SYSTEM    = UTC
MEAN_ELEMENT_THEORY = SGP/SGP4

EPOCH          = 2026-02-10T14:00:03.000384
MEAN_MOTION    = 15.80936994
ECCENTRICITY   = .00012741
INCLINATION    = 42.9990
RA_OF_ASC_NODE = 306.9519
ARG_OF_PERICENTER = 265.6313
MEAN_ANOMALY   = 234.8701

EPHEMERIS_TYPE = 0
CLASSIFICATION_TYPE = U
NORAD_CAT_ID   = 67622
ELEMENT_SET_NO = 999
REV_AT_EPOCH   = 303
BSTAR          = -.11035893E-1
MEAN_MOTION_DOT = -.1924574E-1
MEAN_MOTION_DDOT = 0

CCSDS_OMM_VERS = 2.0
CREATION_DATE  = 
ORIGINATOR     = 

OBJECT_NAME    = STARLINK-36600
OBJECT_ID      = 2026-020G
CENTER_NAME    = EARTH
REF_FRAME      = TEME
TIME_SYSTEM    = UTC
MEAN_ELEMENT_THEORY = SGP/SGP4

EPOCH          = 2026-02-10T14:00:03.000384
MEAN_MOTION    = 15.77328823
ECCENTRICITY   = .00018156
INCLINATION    = 42.9991
RA_OF_ASC_NODE = 306.9624
ARG_OF_PERICENTER = 272.1585
MEAN_ANOMALY   = 224.2603

EPHEMERIS_TYPE = 0
CLASSIFICATION_TYPE = U
NORAD_CAT_ID   = 67623
ELEMENT_SET_NO = 999
REV_AT_EPOCH   = 303
BSTAR          = -.81968734E-2
MEAN_MOTION_DOT = -.1232203E-1
MEAN_MOTION_DDOT = 0

CCSDS_OMM_VERS = 2.0
CREATION_DATE  = 
ORIGINATOR     = 

OBJECT_NAME    = STARLINK-36439
OBJECT_ID      = 2026-020H
CENTER_NAME    = EARTH
REF_FRAME      = TEME
TIME_SYSTEM    = UTC
MEAN_ELEMENT_THEORY = SGP/SGP4

EPOCH          = 2026-02-10T14:00:03.000384
MEAN_MOTION    = 15.81978431
ECCENTRICITY   = .00018
INCLINATION    = 42.9989
RA_OF_ASC_NODE = 306.9314
ARG_OF_PERICENTER = 255.3923
MEAN_ANOMALY   = 253.3624

EPHEMERIS_TYPE = 0
CLASSIFICATION_TYPE = U
NORAD_CAT_ID   = 67624
ELEMENT_SET_NO = 999
REV_AT_EPOCH   = 303
BSTAR          = .22194628E-3
MEAN_MOTION_DOT = .4637E-3
MEAN_MOTION_DDOT = 0

CCSDS_OMM_VERS = 2.0
CREATION_DATE  = 
ORIGINATOR     = 

OBJECT_NAME    = STARLINK-36438
OBJECT_ID      = 2026-020J
CENTER_NAME    = EARTH
REF_FRAME      = TEME
TIME_SYSTEM    = UTC
MEAN_ELEMENT_THEORY = SGP/SGP4

EPOCH          = 2026-02-10T14:00:03.000384
MEAN_MOTION    = 15.81112706
ECCENTRICITY   = .00015037
INCLINATION    = 42.9991
RA_OF_ASC_NODE = 306.9228
ARG_OF_PERICENTER = 258.1047
MEAN_ANOMALY   = 254.1165

EPHEMERIS_TYPE = 0
CLASSIFICATION_TYPE = U
NORAD_CAT_ID   = 67625
ELEMENT_SET_NO = 999
REV_AT_EPOCH   = 303
BSTAR          = -.10900607E-1
MEAN_MOTION_DOT = -.1917989E-1
MEAN_MOTION_DDOT = 0

CCSDS_OMM_VERS = 2.0
CREATION_DATE  = 
ORIGINATOR     = 

OBJECT_NAME    = STARLINK-36436
OBJECT_ID      = 2026-020K
CENTER_NAME    = EARTH
REF_FRAME      = TEME
TIME_SYSTEM    = UTC
MEAN_ELEMENT_THEORY = SGP/SGP4

EPOCH          = 2026-02-10T14:00:03.000384
MEAN_MOTION    = 15.81938913
ECCENTRICITY   = .00017807
INCLINATION    = 42.9990
RA_OF_ASC_NODE = 306.9021
ARG_OF_PERICENTER = 282.3176
MEAN_ANOMALY   = 238.0811

EPHEMERIS_TYPE = 0
CLASSIFICATION_TYPE = U
NORAD_CAT_ID   = 67626
ELEMENT_SET_NO = 999
REV_AT_EPOCH   = 303
BSTAR          = .47297049E-3
MEAN_MOTION_DOT = .99852E-3
MEAN_MOTION_DDOT = 0

CCSDS_OMM_VERS = 2.0
CREATION_DATE  = 
ORIGINATOR     = 

OBJECT_NAME    = STARLINK-36502
OBJECT_ID      = 2026-020L
CENTER_NAME    = EARTH
REF_FRAME      = TEME
TIME_SYSTEM    = UTC
MEAN_ELEMENT_THEORY = SGP/SGP4

EPOCH          = 2026-02-10T14:00:03.000384
MEAN_MOTION    = 15.81933347
ECCENTRICITY   = .00018432
INCLINATION    = 42.9991
RA_OF_ASC_NODE = 306.9129
ARG_OF_PERICENTER = 261.2921
MEAN_ANOMALY   = 254.9465

EPHEMERIS_TYPE = 0
CLASSIFICATION_TYPE = U
NORAD_CAT_ID   = 67627
ELEMENT_SET_NO = 999
REV_AT_EPOCH   = 303
BSTAR          = .60137002E-3
MEAN_MOTION_DOT = .127481E-2
MEAN_MOTION_DDOT = 0

CCSDS_OMM_VERS = 2.0
CREATION_DATE  = 
ORIGINATOR     = 

OBJECT_NAME    = STARLINK-36532
OBJECT_ID      = 2026-020M
CENTER_NAME    = EARTH
REF_FRAME      = TEME
TIME_SYSTEM    = UTC
MEAN_ELEMENT_THEORY = SGP/SGP4

EPOCH          = 2026-02-10T14:00:03.000384
MEAN_MOTION    = 15.81940658
ECCENTRICITY   = .00023508
INCLINATION    = 42.9986
RA_OF_ASC_NODE = 306.8837
ARG_OF_PERICENTER = 273.7329
MEAN_ANOMALY   = 253.7034

EPHEMERIS_TYPE = 0
CLASSIFICATION_TYPE = U
NORAD_CAT_ID   = 67628
ELEMENT_SET_NO = 999
REV_AT_EPOCH   = 303
BSTAR          = .52439085E-3
MEAN_MOTION_DOT = .110924E-2
MEAN_MOTION_DDOT = 0

CCSDS_OMM_VERS = 2.0
CREATION_DATE  = 
ORIGINATOR     = 

OBJECT_NAME    = STARLINK-36367
OBJECT_ID      = 2026-020N
CENTER_NAME    = EARTH
REF_FRAME      = TEME
TIME_SYSTEM    = UTC
MEAN_ELEMENT_THEORY = SGP/SGP4

EPOCH          = 2026-02-10T14:00:03.000384
MEAN_MOTION    = 15.82001685
ECCENTRICITY   = .00017631
INCLINATION    = 42.9990
RA_OF_ASC_NODE = 306.8917
ARG_OF_PERICENTER = 254.4004
MEAN_ANOMALY   = 270.2185

EPHEMERIS_TYPE = 0
CLASSIFICATION_TYPE = U
NORAD_CAT_ID   = 67629
ELEMENT_SET_NO = 999
REV_AT_EPOCH   = 303
BSTAR          = -.77325794E-4
MEAN_MOTION_DOT = -.16773E-3
MEAN_MOTION_DDOT = 0

