STARLINK-36601          
1 67618U 26020B   26041.58336806  .00078910  00000+0  37479-3 0  9997
2 67618  42.9987 306.9843 0001963 261.7273 226.0645 15.81962384  3037
STARLINK-36119          
1 67619U 26020C   26041.58336806 -.01849448  00000+0 -12032-1 0  9999
2 67619  42.9991 306.9953 0001684 269.4984 213.7871 15.78070002  3036
STARLINK-36607          
1 67620U 26020D   26041.58336806  .00133143  00000+0  62778-3 0  9990
2 67620  42.9986 306.9583 0001983 278.4897 219.4128 15.81925286  3031
STARLINK-36615          
1 67621U 26020E   26041.58336806  .00111828  00000+0  52875-3 0  9994
2 67621  42.9990 306.9683 0001948 268.4094 225.7725 15.81934828  3032
STARLINK-36614          
1 67622U 26020F   26041.58336806 -.01924574  00000+0 -11036-1 0  9990
2 67622  42.9990 306.9519 0001274 265.6313 234.8701 15.80936994  3036
STARLINK-36600          
1 67623U 26020G   26041.58336806 -.01232203  00000+0 -81969-2 0  9995
2 67623  42.9991 306.9624 0001815 272.1585 224.2603 15.77328823  3036
STARLINK-36439          
1 67624U 26020H   26041.58336806  .00046370  00000+0  22195-3 0  9998
2 67624  42.9989 306.9314 0001800 255.3923 253.3624 15.81978431  3030
STARLINK-36438          
1 67625U 26020J   26041.58336806 -.01917989  00000+0 -10901-1 0  9995
2 67625  42.9991 306.9228 0001503 258.1047 254.1165 15.81112706  3030
STARLINK-36436          
1 67626U 26020K   26041.58336806  .00099852  00000+0  47297-3 0  9993
2 67626  42.9990 306.9021 0001780 282.3176 238.0811 15.81938913  3035
STARLINK-36502          
1 67627U 26020L   26041.58336806  .00127481  00000+0  60137-3 0  9992
2 67627  42.9991 306.9129 0001843 261.2921 254.9465 15.81933347  3038
STARLINK-36532          
1 67628U 26020M   26041.58336806  .00110924  00000+0  52439-3 0  9993
2 67628  42.9986 306.8837 0002350 273.7329 253.7034 15.81940658  3034
STARLINK-36367          
1 67629U 26020N   26041.58336806 -.00016773  00000+0 -77326-4 0  9996
2 67629  42.9990 306.8917 0001763 254.4004 270.2185 15.82001685  3032
